CCSDS_OMM_VERS = 2.0
CREATION_DATE  = 
ORIGINATOR     = 

OBJECT_NAME    = SL-14 R/B
OBJECT_ID      = 1991-042B
CENTER_NAME    = EARTH
REF_FRAME      = TEME
TIME_SYSTEM    = UTC
MEAN_ELEMENT_THEORY = SGP/SGP4

EPOCH          = 2026-01-08T04:27:47.679264
MEAN_MOTION    = 14.81768563
ECCENTRICITY   = .0018589
INCLINATION    = 82.4937
RA_OF_ASC_NODE = 276.9268
ARG_OF_PERICENTER = 80.6561
MEAN_ANOMALY   = 279.6754

EPHEMERIS_TYPE = 0
CLASSIFICATION_TYPE = U
NORAD_CAT_ID   = 21423
ELEMENT_SET_NO = 999
REV_AT_EPOCH   = 84411
BSTAR          = .53497E-4
MEAN_MOTION_DOT = .447E-5
MEAN_MOTION_DDOT = 0

CCSDS_OMM_VERS = 2.0
CREATION_DATE  = 
ORIGINATOR     = 

OBJECT_NAME    = ERS-1
OBJECT_ID      = 1991-050A
CENTER_NAME    = EARTH
REF_FRAME      = TEME
TIME_SYSTEM    = UTC
MEAN_ELEMENT_THEORY = SGP/SGP4

EPOCH          = 2026-01-08T00:19:08.050368
MEAN_MOTION    = 14.39390681
ECCENTRICITY   = .0032363
INCLINATION    = 98.7897
RA_OF_ASC_NODE = 24.7245
ARG_OF_PERICENTER = 24.0884
MEAN_ANOMALY   = 336.1808

EPHEMERIS_TYPE = 0
CLASSIFICATION_TYPE = U
NORAD_CAT_ID   = 21574
ELEMENT_SET_NO = 999
REV_AT_EPOCH   = 80700
BSTAR          = .13169E-3
MEAN_MOTION_DOT = .366E-5
MEAN_MOTION_DDOT = 0

CCSDS_OMM_VERS = 2.0
CREATION_DATE  = 
ORIGINATOR     = 

OBJECT_NAME    = ARIANE 40 R/B
OBJECT_ID      = 1991-050F
CENTER_NAME    = EARTH
REF_FRAME      = TEME
TIME_SYSTEM    = UTC
MEAN_ELEMENT_THEORY = SGP/SGP4

EPOCH          = 2026-01-08T03:20:16.226016
MEAN_MOTION    = 14.42839437
ECCENTRICITY   = .0002049
INCLINATION    = 98.2126
RA_OF_ASC_NODE = 62.6122
ARG_OF_PERICENTER = 248.4150
MEAN_ANOMALY   = 111.6822

EPHEMERIS_TYPE = 0
CLASSIFICATION_TYPE = U
NORAD_CAT_ID   = 21610
ELEMENT_SET_NO = 999
REV_AT_EPOCH   = 81026
BSTAR          = .11206E-3
MEAN_MOTION_DOT = .332E-5
MEAN_MOTION_DDOT = 0

CCSDS_OMM_VERS = 2.0
CREATION_DATE  = 
ORIGINATOR     = 

OBJECT_NAME    = INTERCOSMOS 25
OBJECT_ID      = 1991-086A
CENTER_NAME    = EARTH
REF_FRAME      = TEME
TIME_SYSTEM    = UTC
MEAN_ELEMENT_THEORY = SGP/SGP4

EPOCH          = 2026-01-08T03:18:14.632704
MEAN_MOTION    = 12.11835708
ECCENTRICITY   = .1485939
INCLINATION    = 82.6086
RA_OF_ASC_NODE = 346.6066
ARG_OF_PERICENTER = 247.4583
MEAN_ANOMALY   = 96.2865

EPHEMERIS_TYPE = 0
CLASSIFICATION_TYPE = U
NORAD_CAT_ID   = 21819
ELEMENT_SET_NO = 999
REV_AT_EPOCH   = 48935
BSTAR          = .28965E-3
MEAN_MOTION_DOT = .1456E-4
MEAN_MOTION_DDOT = 0

CCSDS_OMM_VERS = 2.0
CREATION_DATE  = 
ORIGINATOR     = 

OBJECT_NAME    = SL-8 R/B
OBJECT_ID      = 1992-008B
CENTER_NAME    = EARTH
REF_FRAME      = TEME
TIME_SYSTEM    = UTC
MEAN_ELEMENT_THEORY = SGP/SGP4

EPOCH          = 2026-01-07T22:20:34.285632
MEAN_MOTION    = 13.75965163
ECCENTRICITY   = .0033649
INCLINATION    = 82.9285
RA_OF_ASC_NODE = 312.9666
ARG_OF_PERICENTER = 306.0124
MEAN_ANOMALY   = 118.1939

EPHEMERIS_TYPE = 0
CLASSIFICATION_TYPE = U
NORAD_CAT_ID   = 21876
ELEMENT_SET_NO = 999
REV_AT_EPOCH   = 70106
BSTAR          = .1031E-3
MEAN_MOTION_DOT = .115E-5
MEAN_MOTION_DDOT = 0

CCSDS_OMM_VERS = 2.0
CREATION_DATE  = 
ORIGINATOR     = 

OBJECT_NAME    = SL-8 R/B
OBJECT_ID      = 1992-020B
CENTER_NAME    = EARTH
REF_FRAME      = TEME
TIME_SYSTEM    = UTC
MEAN_ELEMENT_THEORY = SGP/SGP4

EPOCH          = 2026-01-08T00:55:27.804864
MEAN_MOTION    = 13.75535546
ECCENTRICITY   = .003018
INCLINATION    = 82.9291
RA_OF_ASC_NODE = 198.7877
ARG_OF_PERICENTER = 106.4945
MEAN_ANOMALY   = 9.3354

EPHEMERIS_TYPE = 0
CLASSIFICATION_TYPE = U
NORAD_CAT_ID   = 21938
ELEMENT_SET_NO = 999
REV_AT_EPOCH   = 69279
BSTAR          = .14643E-3
MEAN_MOTION_DOT = .157E-5
MEAN_MOTION_DDOT = 0

CCSDS_OMM_VERS = 2.0
CREATION_DATE  = 
ORIGINATOR     = 

OBJECT_NAME    = USA 81
OBJECT_ID      = 1992-023A
CENTER_NAME    = EARTH
REF_FRAME      = TEME
TIME_SYSTEM    = UTC
MEAN_ELEMENT_THEORY = SGP/SGP4

EPOCH          = 2026-01-07T22:50:43.156896
MEAN_MOTION    = 14.32339458
ECCENTRICITY   = .0001347
INCLINATION    = 85.0093
RA_OF_ASC_NODE = 166.4593
ARG_OF_PERICENTER = 114.8660
MEAN_ANOMALY   = 245.2672

EPHEMERIS_TYPE = 0
CLASSIFICATION_TYPE = U
NORAD_CAT_ID   = 21949
ELEMENT_SET_NO = 999
REV_AT_EPOCH   = 8609
BSTAR          = .74053E-4
MEAN_MOTION_DOT = .22E-5
MEAN_MOTION_DDOT = 0

CCSDS_OMM_VERS = 2.0
CREATION_DATE  = 
ORIGINATOR     = 

OBJECT_NAME    = COSMOS 2219
OBJECT_ID      = 1992-076A
CENTER_NAME    = EARTH
REF_FRAME      = TEME
TIME_SYSTEM    = UTC
MEAN_ELEMENT_THEORY = SGP/SGP4

EPOCH          = 2026-01-08T02:38:48.858144
MEAN_MOTION    = 14.14079591
ECCENTRICITY   = .0020313
INCLINATION    = 71.0611
RA_OF_ASC_NODE = 144.7077
ARG_OF_PERICENTER = 290.5045
MEAN_ANOMALY   = 69.3897

EPHEMERIS_TYPE = 0
CLASSIFICATION_TYPE = U
NORAD_CAT_ID   = 22219
ELEMENT_SET_NO = 999
REV_AT_EPOCH   = 70981
BSTAR          = .11867E-3
MEAN_MOTION_DOT = .179E-5
MEAN_MOTION_DDOT = 0

CCSDS_OMM_VERS = 2.0
CREATION_DATE  = 
ORIGINATOR     = 

OBJECT_NAME    = SL-16 R/B
OBJECT_ID      = 1992-076B
CENTER_NAME    = EARTH
REF_FRAME      = TEME
TIME_SYSTEM    = UTC
MEAN_ELEMENT_THEORY = SGP/SGP4

EPOCH          = 2026-01-08T04:47:35.659392
MEAN_MOTION    = 14.16846043
ECCENTRICITY   = .0013413
INCLINATION    = 71.0012
RA_OF_ASC_NODE = 315.7937
ARG_OF_PERICENTER = 197.4150
MEAN_ANOMALY   = 261.2074

EPHEMERIS_TYPE = 0
CLASSIFICATION_TYPE = U
NORAD_CAT_ID   = 22220
ELEMENT_SET_NO = 999
REV_AT_EPOCH   = 71326
BSTAR          = .10492E-3
MEAN_MOTION_DOT = .163E-5
MEAN_MOTION_DDOT = 0

CCSDS_OMM_VERS = 2.0
CREATION_DATE  = 
ORIGINATOR     = 

OBJECT_NAME    = COSMOS 2221
OBJECT_ID      = 1992-080A
CENTER_NAME    = EARTH
REF_FRAME      = TEME
TIME_SYSTEM    = UTC
MEAN_ELEMENT_THEORY = SGP/SGP4

EPOCH          = 2026-01-08T00:58:24.007296
MEAN_MOTION    = 14.95897545
ECCENTRICITY   = .0015774
INCLINATION    = 82.5056
RA_OF_ASC_NODE = 337.1483
ARG_OF_PERICENTER = 41.8536
MEAN_ANOMALY   = 318.3888

EPHEMERIS_TYPE = 0
CLASSIFICATION_TYPE = U
NORAD_CAT_ID   = 22236
ELEMENT_SET_NO = 999
REV_AT_EPOCH   = 77172
BSTAR          = .21068E-3
MEAN_MOTION_DOT = .2387E-4
MEAN_MOTION_DDOT = 0

CCSDS_OMM_VERS = 2.0
CREATION_DATE  = 
ORIGINATOR     = 

OBJECT_NAME    = SL-16 R/B
OBJECT_ID      = 1992-093B
CENTER_NAME    = EARTH
REF_FRAME      = TEME
TIME_SYSTEM    = UTC
MEAN_ELEMENT_THEORY = SGP/SGP4

EPOCH          = 2026-01-08T00:48:27.009216
MEAN_MOTION    = 14.15433919
ECCENTRICITY   = .0003269
INCLINATION    = 71.0213
RA_OF_ASC_NODE = 131.6008
ARG_OF_PERICENTER = 7.3799
MEAN_ANOMALY   = 352.7372

EPHEMERIS_TYPE = 0
CLASSIFICATION_TYPE = U
NORAD_CAT_ID   = 22285
ELEMENT_SET_NO = 999
REV_AT_EPOCH   = 70457
BSTAR          = .34293E-4
MEAN_MOTION_DOT = .19E-6
MEAN_MOTION_DDOT = 0

CCSDS_OMM_VERS = 2.0
CREATION_DATE  = 
ORIGINATOR     = 

OBJECT_NAME    = COSMOS 2228
OBJECT_ID      = 1992-094A
CENTER_NAME    = EARTH
REF_FRAME      = TEME
TIME_SYSTEM    = UTC
MEAN_ELEMENT_THEORY = SGP/SGP4

EPOCH          = 2026-01-08T03:55:14.169216
MEAN_MOTION    = 14.96881911
ECCENTRICITY   = .0018934
INCLINATION    = 82.5193
RA_OF_ASC_NODE = 295.2522
ARG_OF_PERICENTER = 141.0293
MEAN_ANOMALY   = 219.2298

EPHEMERIS_TYPE = 0
CLASSIFICATION_TYPE = U
NORAD_CAT_ID   = 22286
ELEMENT_SET_NO = 999
REV_AT_EPOCH   = 76700
BSTAR          = .16517E-3
MEAN_MOTION_DOT = .1927E-4
MEAN_MOTION_DDOT = 0

