SL-14 R/B               
1 21423U 91042B   26008.18596851  .00000447  00000+0  53497-4 0  9993
2 21423  82.4937 276.9268 0018589  80.6561 279.6754 14.81768563844111
ERS-1                   
1 21574U 91050A   26008.01328762  .00000366  00000+0  13169-3 0  9996
2 21574  98.7897  24.7245 0032363  24.0884 336.1808 14.39390681807004
ARIANE 40 R/B           
1 21610U 91050F   26008.13907669  .00000332  00000+0  11206-3 0  9992
2 21610  98.2126  62.6122 0002049 248.4150 111.6822 14.42839437810261
INTERCOSMOS 25          
1 21819U 91086A   26008.13766936  .00001456  00000+0  28965-3 0  9990
2 21819  82.6086 346.6066 1485939 247.4583  96.2865 12.11835708489357
SL-8 R/B                
1 21876U 92008B   26007.93095238  .00000115  00000+0  10310-3 0  9991
2 21876  82.9285 312.9666 0033649 306.0124 118.1939 13.75965163701066
SL-8 R/B                
1 21938U 92020B   26008.03851626  .00000157  00000+0  14643-3 0  9996
2 21938  82.9291 198.7877 0030180 106.4945   9.3354 13.75535546692795
USA 81                  
1 21949U 92023A   26007.95188839  .00000220  00000+0  74053-4 0  9993
2 21949  85.0093 166.4593 0001347 114.8660 245.2672 14.32339458 86090
COSMOS 2219             
1 22219U 92076A   26008.11028771  .00000179  00000+0  11867-3 0  9995
2 22219  71.0611 144.7077 0020313 290.5045  69.3897 14.14079591709816
SL-16 R/B               
1 22220U 92076B   26008.19971828  .00000163  00000+0  10492-3 0  9991
2 22220  71.0012 315.7937 0013413 197.4150 261.2074 14.16846043713263
COSMOS 2221             
1 22236U 92080A   26008.04055564  .00002387  00000+0  21068-3 0  9998
2 22236  82.5056 337.1483 0015774  41.8536 318.3888 14.95897545771723
SL-16 R/B               
1 22285U 92093B   26008.03364594  .00000019  00000+0  34293-4 0  9996
2 22285  71.0213 131.6008 0003269   7.3799 352.7372 14.15433919704571
COSMOS 2228             
1 22286U 92094A   26008.16335844  .00001927  00000+0  16517-3 0  9995
2 22286  82.5193 295.2522 0018934 141.0293 219.2298 14.96881911767003
